SXM-10                  
1 64290U 25122A   26064.15947523 -.00000025  00000+0  00000+0 0  9993
2 64290   0.0247  67.2363 0002848 299.6621  97.2175  1.00270923  2647
CHINASAT 9C             
1 64470U 25132A   26064.17058906 -.00000256  00000+0  00000+0 0  9990
2 64470   0.0231 112.8170 0002608 219.9999 343.7022  1.00271994  3101
MTG-S1                  
1 64723U 25143A   26064.22595045 -.00000041  00000+0  00000+0 0  9991
2 64723   0.6546 326.4638 0002557 347.3423 287.0309  1.00269945  2379
DROR 1                  
1 64784U 25148A   26064.22586378 -.00000043  00000+0  00000+0 0  9994
2 64784   0.0302  87.0238 0003537 260.0760 253.1556  1.00272288  2259
SHIYAN-29               
1 65486U 25196A   26064.00839924 -.00000273  00000+0  00000+0 0  9996
2 65486  28.7118  19.8461 0010000 183.3387  57.0076  1.00288773  1834
TJS-20                  
1 66142U 25238A   26064.20669693  .00000013  00000+0  00000+0 0  9990
2 66142   5.7007 299.9409 0007575  90.0485 269.7558  1.00269825  1288
CMS-03 (GSAT-7R)        
1 66311U 25249B   26064.17614138 -.00000084  00000+0  00000+0 0  9999
2 66311   0.0608 272.0418 0001468 216.8177 177.8347  0.99987724  1304
