[{"OBJECT_NAME":"SXM-10","OBJECT_ID":"2025-122A","EPOCH":"2026-03-05T03:49:38.659872","MEAN_MOTION":1.00270923,"ECCENTRICITY":0.00028481,"INCLINATION":0.0247,"RA_OF_ASC_NODE":67.2363,"ARG_OF_PERICENTER":299.6621,"MEAN_ANOMALY":97.2175,"EPHEMERIS_TYPE":0,"CLASSIFICATION_TYPE":"U","NORAD_CAT_ID":64290,"ELEMENT_SET_NO":999,"REV_AT_EPOCH":264,"BSTAR":0,"MEAN_MOTION_DOT":-2.5e-7,"MEAN_MOTION_DDOT":0},{"OBJECT_NAME":"CHINASAT 9C","OBJECT_ID":"2025-132A","EPOCH":"2026-03-05T04:05:38.894784","MEAN_MOTION":1.00271994,"ECCENTRICITY":0.00026084,"INCLINATION":0.0231,"RA_OF_ASC_NODE":112.817,"ARG_OF_PERICENTER":219.9999,"MEAN_ANOMALY":343.7022,"EPHEMERIS_TYPE":0,"CLASSIFICATION_TYPE":"U","NORAD_CAT_ID":64470,"ELEMENT_SET_NO":999,"REV_AT_EPOCH":310,"BSTAR":0,"MEAN_MOTION_DOT":-2.56e-6,"MEAN_MOTION_DDOT":0},{"OBJECT_NAME":"MTG-S1","OBJECT_ID":"2025-143A","EPOCH":"2026-03-05T05:25:22.118880","MEAN_MOTION":1.00269945,"ECCENTRICITY":0.00025575,"INCLINATION":0.6546,"RA_OF_ASC_NODE":326.4638,"ARG_OF_PERICENTER":347.3423,"MEAN_ANOMALY":287.0309,"EPHEMERIS_TYPE":0,"CLASSIFICATION_TYPE":"U","NORAD_CAT_ID":64723,"ELEMENT_SET_NO":999,"REV_AT_EPOCH":237,"BSTAR":0,"MEAN_MOTION_DOT":-4.1e-7,"MEAN_MOTION_DDOT":0},{"OBJECT_NAME":"DROR 1","OBJECT_ID":"2025-148A","EPOCH":"2026-03-05T05:25:14.630592","MEAN_MOTION":1.00272288,"ECCENTRICITY":0.0003537,"INCLINATION":0.0302,"RA_OF_ASC_NODE":87.0238,"ARG_OF_PERICENTER":260.076,"MEAN_ANOMALY":253.1556,"EPHEMERIS_TYPE":0,"CLASSIFICATION_TYPE":"U","NORAD_CAT_ID":64784,"ELEMENT_SET_NO":999,"REV_AT_EPOCH":225,"BSTAR":0,"MEAN_MOTION_DOT":-4.3e-7,"MEAN_MOTION_DDOT":0},{"OBJECT_NAME":"SHIYAN-29","OBJECT_ID":"2025-196A","EPOCH":"2026-03-05T00:12:05.694336","MEAN_MOTION":1.00288773,"ECCENTRICITY":0.00100003,"INCLINATION":28.7118,"RA_OF_ASC_NODE":19.8461,"ARG_OF_PERICENTER":183.3387,"MEAN_ANOMALY":57.0076,"EPHEMERIS_TYPE":0,"CLASSIFICATION_TYPE":"U","NORAD_CAT_ID":65486,"ELEMENT_SET_NO":999,"REV_AT_EPOCH":183,"BSTAR":0,"MEAN_MOTION_DOT":-2.73e-6,"MEAN_MOTION_DDOT":0},{"OBJECT_NAME":"TJS-20","OBJECT_ID":"2025-238A","EPOCH":"2026-03-05T04:57:38.614752","MEAN_MOTION":1.00269825,"ECCENTRICITY":0.00075751,"INCLINATION":5.7007,"RA_OF_ASC_NODE":299.9409,"ARG_OF_PERICENTER":90.0485,"MEAN_ANOMALY":269.7558,"EPHEMERIS_TYPE":0,"CLASSIFICATION_TYPE":"U","NORAD_CAT_ID":66142,"ELEMENT_SET_NO":999,"REV_AT_EPOCH":128,"BSTAR":0,"MEAN_MOTION_DOT":1.3e-7,"MEAN_MOTION_DDOT":0},{"OBJECT_NAME":"CMS-03 (GSAT-7R)","OBJECT_ID":"2025-249B","EPOCH":"2026-03-05T04:13:38.615232","MEAN_MOTION":0.99987724,"ECCENTRICITY":0.00014689,"INCLINATION":0.0608,"RA_OF_ASC_NODE":272.0418,"ARG_OF_PERICENTER":216.8177,"MEAN_ANOMALY":177.8347,"EPHEMERIS_TYPE":0,"CLASSIFICATION_TYPE":"U","NORAD_CAT_ID":66311,"ELEMENT_SET_NO":999,"REV_AT_EPOCH":130,"BSTAR":0,"MEAN_MOTION_DOT":-8.4e-7,"MEAN_MOTION_DDOT":0}]
